CCSDS_OMM_VERS = 2.0
CREATION_DATE  = 
ORIGINATOR     = 

OBJECT_NAME    = STARLINK-35490
OBJECT_ID      = 2025-243AD
CENTER_NAME    = EARTH
REF_FRAME      = TEME
TIME_SYSTEM    = UTC
MEAN_ELEMENT_THEORY = SGP/SGP4

EPOCH          = 2025-11-14T18:43:54.099264
MEAN_MOTION    = 15.72952447
ECCENTRICITY   = .0000326
INCLINATION    = 53.1584
RA_OF_ASC_NODE = 60.9209
ARG_OF_PERICENTER = 87.2506
MEAN_ANOMALY   = 272.8550

EPHEMERIS_TYPE = 0
CLASSIFICATION_TYPE = U
NORAD_CAT_ID   = 66204
ELEMENT_SET_NO = 999
REV_AT_EPOCH   = 303
BSTAR          = -.57108E-2
MEAN_MOTION_DOT = -.728165E-2
MEAN_MOTION_DDOT = 0

CCSDS_OMM_VERS = 2.0
CREATION_DATE  = 
ORIGINATOR     = 

OBJECT_NAME    = STARLINK-35748
OBJECT_ID      = 2025-244A
CENTER_NAME    = EARTH
REF_FRAME      = TEME
TIME_SYSTEM    = UTC
MEAN_ELEMENT_THEORY = SGP/SGP4

EPOCH          = 2025-11-14T18:00:02.998944
MEAN_MOTION    = 15.57190621
ECCENTRICITY   = .0001438
INCLINATION    = 53.1597
RA_OF_ASC_NODE = 48.3917
ARG_OF_PERICENTER = 56.8862
MEAN_ANOMALY   = 65.9994

EPHEMERIS_TYPE = 0
CLASSIFICATION_TYPE = U
NORAD_CAT_ID   = 66206
ELEMENT_SET_NO = 999
REV_AT_EPOCH   = 376
BSTAR          = -.30852E-1
MEAN_MOTION_DOT = -.2040591E-1
MEAN_MOTION_DDOT = 0

CCSDS_OMM_VERS = 2.0
CREATION_DATE  = 
ORIGINATOR     = 

OBJECT_NAME    = STARLINK-35747
OBJECT_ID      = 2025-244B
CENTER_NAME    = EARTH
REF_FRAME      = TEME
TIME_SYSTEM    = UTC
MEAN_ELEMENT_THEORY = SGP/SGP4

EPOCH          = 2025-11-14T18:29:19.237920
MEAN_MOTION    = 15.74285818
ECCENTRICITY   = .0001294
INCLINATION    = 53.1595
RA_OF_ASC_NODE = 48.0410
ARG_OF_PERICENTER = 81.8902
MEAN_ANOMALY   = 278.2264

EPHEMERIS_TYPE = 0
CLASSIFICATION_TYPE = U
NORAD_CAT_ID   = 66207
ELEMENT_SET_NO = 999
REV_AT_EPOCH   = 400
BSTAR          = .12699E-2
MEAN_MOTION_DOT = .190404E-2
MEAN_MOTION_DDOT = 0

CCSDS_OMM_VERS = 2.0
CREATION_DATE  = 
ORIGINATOR     = 

OBJECT_NAME    = STARLINK-35751
OBJECT_ID      = 2025-244C
CENTER_NAME    = EARTH
REF_FRAME      = TEME
TIME_SYSTEM    = UTC
MEAN_ELEMENT_THEORY = SGP/SGP4

EPOCH          = 2025-11-14T18:00:02.998944
MEAN_MOTION    = 15.57192652
ECCENTRICITY   = .0001428
INCLINATION    = 53.1599
RA_OF_ASC_NODE = 48.3836
ARG_OF_PERICENTER = 59.5576
MEAN_ANOMALY   = 67.1609

EPHEMERIS_TYPE = 0
CLASSIFICATION_TYPE = U
NORAD_CAT_ID   = 66208
ELEMENT_SET_NO = 999
REV_AT_EPOCH   = 387
BSTAR          = -.30895E-1
MEAN_MOTION_DOT = -.2043291E-1
MEAN_MOTION_DDOT = 0

CCSDS_OMM_VERS = 2.0
CREATION_DATE  = 
ORIGINATOR     = 

OBJECT_NAME    = STARLINK-35750
OBJECT_ID      = 2025-244D
CENTER_NAME    = EARTH
REF_FRAME      = TEME
TIME_SYSTEM    = UTC
MEAN_ELEMENT_THEORY = SGP/SGP4

EPOCH          = 2025-11-14T18:00:02.998944
MEAN_MOTION    = 15.57193386
ECCENTRICITY   = .0001426
INCLINATION    = 53.1597
RA_OF_ASC_NODE = 48.3748
ARG_OF_PERICENTER = 58.3458
MEAN_ANOMALY   = 72.2055

EPHEMERIS_TYPE = 0
CLASSIFICATION_TYPE = U
NORAD_CAT_ID   = 66209
ELEMENT_SET_NO = 999
REV_AT_EPOCH   = 384
BSTAR          = -.30907E-1
MEAN_MOTION_DOT = -.2044068E-1
MEAN_MOTION_DDOT = 0

CCSDS_OMM_VERS = 2.0
CREATION_DATE  = 
ORIGINATOR     = 

OBJECT_NAME    = STARLINK-35740
OBJECT_ID      = 2025-244E
CENTER_NAME    = EARTH
REF_FRAME      = TEME
TIME_SYSTEM    = UTC
MEAN_ELEMENT_THEORY = SGP/SGP4

EPOCH          = 2025-11-14T18:00:02.998944
MEAN_MOTION    = 15.57193311
ECCENTRICITY   = .0001438
INCLINATION    = 53.1599
RA_OF_ASC_NODE = 48.3791
ARG_OF_PERICENTER = 56.3828
MEAN_ANOMALY   = 72.2512

EPHEMERIS_TYPE = 0
CLASSIFICATION_TYPE = U
NORAD_CAT_ID   = 66210
ELEMENT_SET_NO = 999
REV_AT_EPOCH   = 371
BSTAR          = -.30902E-1
MEAN_MOTION_DOT = -.2043785E-1
MEAN_MOTION_DDOT = 0

CCSDS_OMM_VERS = 2.0
CREATION_DATE  = 
ORIGINATOR     = 

OBJECT_NAME    = STARLINK-35723
OBJECT_ID      = 2025-244F
CENTER_NAME    = EARTH
REF_FRAME      = TEME
TIME_SYSTEM    = UTC
MEAN_ELEMENT_THEORY = SGP/SGP4

EPOCH          = 2025-11-14T18:00:02.998944
MEAN_MOTION    = 15.57193139
ECCENTRICITY   = .0001399
INCLINATION    = 53.1598
RA_OF_ASC_NODE = 48.3707
ARG_OF_PERICENTER = 61.2056
MEAN_ANOMALY   = 71.2628

EPHEMERIS_TYPE = 0
CLASSIFICATION_TYPE = U
NORAD_CAT_ID   = 66211
ELEMENT_SET_NO = 999
REV_AT_EPOCH   = 376
BSTAR          = -.30896E-1
MEAN_MOTION_DOT = -.2043354E-1
MEAN_MOTION_DDOT = 0

CCSDS_OMM_VERS = 2.0
CREATION_DATE  = 
ORIGINATOR     = 

OBJECT_NAME    = STARLINK-35710
OBJECT_ID      = 2025-244G
CENTER_NAME    = EARTH
REF_FRAME      = TEME
TIME_SYSTEM    = UTC
MEAN_ELEMENT_THEORY = SGP/SGP4

EPOCH          = 2025-11-14T18:00:02.998944
MEAN_MOTION    = 15.57195169
ECCENTRICITY   = .0001538
INCLINATION    = 53.1598
RA_OF_ASC_NODE = 48.3624
ARG_OF_PERICENTER = 64.3059
MEAN_ANOMALY   = 71.9966

EPHEMERIS_TYPE = 0
CLASSIFICATION_TYPE = U
NORAD_CAT_ID   = 66212
ELEMENT_SET_NO = 999
REV_AT_EPOCH   = 384
BSTAR          = -.30964E-1
MEAN_MOTION_DOT = -.2047602E-1
MEAN_MOTION_DDOT = 0

CCSDS_OMM_VERS = 2.0
CREATION_DATE  = 
ORIGINATOR     = 

OBJECT_NAME    = STARLINK-34204
OBJECT_ID      = 2025-244H
CENTER_NAME    = EARTH
REF_FRAME      = TEME
TIME_SYSTEM    = UTC
MEAN_ELEMENT_THEORY = SGP/SGP4

EPOCH          = 2025-11-14T18:00:02.998944
MEAN_MOTION    = 15.57193239
ECCENTRICITY   = .0001379
INCLINATION    = 53.1599
RA_OF_ASC_NODE = 48.3670
ARG_OF_PERICENTER = 55.8705
MEAN_ANOMALY   = 78.5143

EPHEMERIS_TYPE = 0
CLASSIFICATION_TYPE = U
NORAD_CAT_ID   = 66213
ELEMENT_SET_NO = 999
REV_AT_EPOCH   = 403
BSTAR          = -.30905E-1
MEAN_MOTION_DOT = -.2043873E-1
MEAN_MOTION_DDOT = 0

CCSDS_OMM_VERS = 2.0
CREATION_DATE  = 
ORIGINATOR     = 

OBJECT_NAME    = STARLINK-35714
OBJECT_ID      = 2025-244J
CENTER_NAME    = EARTH
REF_FRAME      = TEME
TIME_SYSTEM    = UTC
MEAN_ELEMENT_THEORY = SGP/SGP4

EPOCH          = 2025-11-14T18:00:02.998944
MEAN_MOTION    = 15.57195175
ECCENTRICITY   = .0001477
INCLINATION    = 53.1598
RA_OF_ASC_NODE = 48.3464
ARG_OF_PERICENTER = 63.9182
MEAN_ANOMALY   = 80.0515

EPHEMERIS_TYPE = 0
CLASSIFICATION_TYPE = U
NORAD_CAT_ID   = 66214
ELEMENT_SET_NO = 999
REV_AT_EPOCH   = 371
BSTAR          = -.30958E-1
MEAN_MOTION_DOT = -.2047208E-1
MEAN_MOTION_DDOT = 0

CCSDS_OMM_VERS = 2.0
CREATION_DATE  = 
ORIGINATOR     = 

OBJECT_NAME    = STARLINK-35712
OBJECT_ID      = 2025-244K
CENTER_NAME    = EARTH
REF_FRAME      = TEME
TIME_SYSTEM    = UTC
MEAN_ELEMENT_THEORY = SGP/SGP4

EPOCH          = 2025-11-14T18:00:02.998944
MEAN_MOTION    = 15.57192167
ECCENTRICITY   = .0001415
INCLINATION    = 53.1597
RA_OF_ASC_NODE = 48.3385
ARG_OF_PERICENTER = 62.5673
MEAN_ANOMALY   = 85.2367

EPHEMERIS_TYPE = 0
CLASSIFICATION_TYPE = U
NORAD_CAT_ID   = 66215
ELEMENT_SET_NO = 999
REV_AT_EPOCH   = 371
BSTAR          = -.30885E-1
MEAN_MOTION_DOT = -.2042655E-1
MEAN_MOTION_DDOT = 0

CCSDS_OMM_VERS = 2.0
CREATION_DATE  = 
ORIGINATOR     = 

OBJECT_NAME    = STARLINK-35709
OBJECT_ID      = 2025-244L
CENTER_NAME    = EARTH
REF_FRAME      = TEME
TIME_SYSTEM    = UTC
MEAN_ELEMENT_THEORY = SGP/SGP4

EPOCH          = 2025-11-14T18:00:02.998944
MEAN_MOTION    = 15.57192571
ECCENTRICITY   = .0001429
INCLINATION    = 53.1598
RA_OF_ASC_NODE = 48.3588
ARG_OF_PERICENTER = 60.0917
MEAN_ANOMALY   = 78.1275

EPHEMERIS_TYPE = 0
CLASSIFICATION_TYPE = U
NORAD_CAT_ID   = 66216
ELEMENT_SET_NO = 999
REV_AT_EPOCH   = 371
BSTAR          = -.30889E-1
MEAN_MOTION_DOT = -.2042919E-1
MEAN_MOTION_DDOT = 0

