STARLINK-35490          
1 66204U 25243AD  25318.78048726 -.00728165  00000+0 -57108-2 0  9998
2 66204  53.1584  60.9209 0000326  87.2506 272.8550 15.72952447  3032
STARLINK-35748          
1 66206U 25244A   25318.75003471 -.02040591  00000+0 -30852-1 0  9994
2 66206  53.1597  48.3917 0001438  56.8862  65.9994 15.57190621  3760
STARLINK-35747          
1 66207U 25244B   25318.77036155  .00190404  00000+0  12699-2 0  9997
2 66207  53.1595  48.0410 0001294  81.8902 278.2264 15.74285818  4006
STARLINK-35751          
1 66208U 25244C   25318.75003471 -.02043291  00000+0 -30895-1 0  9993
2 66208  53.1599  48.3836 0001428  59.5576  67.1609 15.57192652  3870
STARLINK-35750          
1 66209U 25244D   25318.75003471 -.02044068  00000+0 -30907-1 0  9991
2 66209  53.1597  48.3748 0001426  58.3458  72.2055 15.57193386  3849
STARLINK-35740          
1 66210U 25244E   25318.75003471 -.02043785  00000+0 -30902-1 0  9993
2 66210  53.1599  48.3791 0001438  56.3828  72.2512 15.57193311  3715
STARLINK-35723          
1 66211U 25244F   25318.75003471 -.02043354  00000+0 -30896-1 0  9998
2 66211  53.1598  48.3707 0001399  61.2056  71.2628 15.57193139  3766
STARLINK-35710          
1 66212U 25244G   25318.75003471 -.02047602  00000+0 -30964-1 0  9995
2 66212  53.1598  48.3624 0001538  64.3059  71.9966 15.57195169  3843
STARLINK-34204          
1 66213U 25244H   25318.75003471 -.02043873  00000+0 -30905-1 0  9997
2 66213  53.1599  48.3670 0001379  55.8705  78.5143 15.57193239  4030
STARLINK-35714          
1 66214U 25244J   25318.75003471 -.02047208  00000+0 -30958-1 0  9992
2 66214  53.1598  48.3464 0001477  63.9182  80.0515 15.57195175  3715
STARLINK-35712          
1 66215U 25244K   25318.75003471 -.02042655  00000+0 -30885-1 0  9993
2 66215  53.1597  48.3385 0001415  62.5673  85.2367 15.57192167  3719
STARLINK-35709          
1 66216U 25244L   25318.75003471 -.02042919  00000+0 -30889-1 0  9991
2 66216  53.1598  48.3588 0001429  60.0917  78.1275 15.57192571  3713
